#cP2012 12  4  0  0  0.00000000     288 u+U   IGb08 FIT  TUM
## 1717 172800.00000000   300.00000000 56265 0.0000000000000
+    3   J01E11E12  0  0  0  0  0  0  0  0  0  0  0  0  0  0
+          0  0  0  0  0  0  0  0  0  0  0  0  0  0  0  0  0
+          0  0  0  0  0  0  0  0  0  0  0  0  0  0  0  0  0
+          0  0  0  0  0  0  0  0  0  0  0  0  0  0  0  0  0
+          0  0  0  0  0  0  0  0  0  0  0  0  0  0  0  0  0
++         4  1  1  0  0  0  0  0  0  0  0  0  0  0  0  0  0
++         0  0  0  0  0  0  0  0  0  0  0  0  0  0  0  0  0
++         0  0  0  0  0  0  0  0  0  0  0  0  0  0  0  0  0
++         0  0  0  0  0  0  0  0  0  0  0  0  0  0  0  0  0
++         0  0  0  0  0  0  0  0  0  0  0  0  0  0  0  0  0
%c E  cc GPS ccc cccc cccc cccc cccc ccccc ccccc ccccc ccccc
%c cc cc ccc ccc cccc cccc cccc cccc ccccc ccccc ccccc ccccc
%f  1.2500000  1.025000000  0.00000000000  0.000000000000000
%f  0.0000000  0.000000000  0.00000000000  0.000000000000000
%i    0    0    0    0      0      0      0      0         0
%i    0    0    0    0      0      0      0      0         0
/* Galileo+QZSS orbits for MGEX based on CONGO+MGEX data    
/* Technische Universitaet Muenchen (TUM)                   
/* Further information: www.iapg.bv.tum.de/mgex             
/* PCV:IGS08_1645 OL/AL:FES2004  NONE     YN ORB:CoN CLK:CoN
*  2012 12  4 13 20  0.00000000
PJ01 -18971.254153  31209.772716 -16391.359577    351.268453
PE11  27836.897484   7919.714546   6208.269768   -127.980903
PE12  21248.359019  17785.439937 -10403.391707    653.972455
*  2012 12  4 13 25  0.00000000
PJ01 -18841.635951  30971.940276 -16855.105973    351.268285
PE11  28000.843805   7978.619549   5334.565276   -127.956181
PE12  20955.900862  17642.759389 -11208.356297    653.997983
*  2012 12  4 13 30  0.00000000
PJ01 -18721.040117  30726.067921 -17309.389274    351.268164
PE11  28141.727624   8023.635634   4453.480757   -127.931425
PE12  20638.175516  17497.461724 -11997.812839    654.023504
*  2012 12  4 13 35  0.00000000
PJ01 -18609.779385  30472.509819 -17753.916221    351.268071
PE11  28258.835479   8055.746951   3566.235145   -127.906692
PE12  20295.383176  17350.779891 -12770.669117    654.049026
*  2012 12  4 13 40  0.00000000
PJ01 -18508.151027  30211.636350 -18188.397715    351.267964
PE11  28351.519420   8075.979121   2674.055881   -127.881954
PE12  19927.800489  17203.937667 -13525.855913    654.074554
*  2012 12  4 13 45  0.00000000
PJ01 -18416.436101  29943.833459 -18612.549124    351.267800
PE11  28419.199324   8085.395389   1778.177226   -127.857210
PE12  19535.779807  17058.145229 -14262.328473    654.100088
*  2012 12  4 13 50  0.00000000
PJ01 -18334.898721  29669.501979 -19026.090611    351.267686
PE11  28461.364984   8085.092651    879.838531   -127.832490
PE12  19119.748165  16914.594758 -14979.067971    654.125610
*  2012 12  4 13 55  0.00000000
PJ01 -18263.785366  29389.056906 -19428.747436    351.267594
PE11  28477.577947   8076.197360    -19.717459   -127.807770
PE12  18680.206020  16774.456125 -15675.082907    654.151124
*  2012 12  4 14  0  0.00000000
PJ01 -18203.324211  29102.926640 -19820.250284    351.267432
PE11  28467.473116   8059.861330   -919.246344   -127.783017
PE12  18217.725717  16638.872645 -16349.410483    654.176642
*  2012 12  4 14  5  0.00000000
PJ01 -18153.724508  28811.552193 -20200.335569    351.267314
PE11  28430.760094   8037.257456  -1817.503782   -127.758272
PE12  17732.949721  16508.956943 -17001.117933    654.202186
*  2012 12  4 14 10  0.00000000
PJ01 -18115.175991  28515.386343 -20568.745760    351.267256
PE11  28367.224270   8009.575359  -2713.247220   -127.733534
PE12  17226.588598  16385.786911 -17629.303819    654.227711
*  2012 12  4 14 15  0.00000000
PJ01 -18087.848334  28214.892785 -20925.229681    351.267100
PE11  28276.727647   7978.016975  -3605.237602   -127.708808
PE12  16699.418769  16270.401810 -18233.099264    654.253222
*  2012 12  4 14 20  0.00000000
PJ01 -18071.890638  27910.545215 -21269.542827    351.266971
PE11  28159.209410   7943.792102  -4492.241103   -127.684099
PE12  16152.280024  16163.798496 -18811.669167    654.278756
*  2012 12  4 14 25  0.00000000
PJ01 -18067.430973  27602.826414 -21601.447668    351.266876
PE11  28014.686221   7908.113920  -5373.030824   -127.659355
PE12  15586.072829  16066.927804 -19364.213350    654.304321
*  2012 12  4 14 30  0.00000000
PJ01 -18074.575957  27292.227283 -21920.713948    351.266746
PE11  27843.252253   7872.194504  -6246.388492   -127.634577
PE12  15001.755423  15980.691094 -19889.967661    654.329862
*  2012 12  4 14 35  0.00000000
PJ01 -18093.410388  26979.245860 -22227.118981    351.266565
PE11  27645.078951   7837.240339  -7111.106155   -127.609846
PE12  14400.340702  15905.936978 -20388.205035    654.355384
*  2012 12  4 14 40  0.00000000
PJ01 -18123.996921  26664.386317 -22520.447944    351.266482
PE11  27420.414540   7804.447858  -7965.987842   -127.585103
PE12  13782.892933  15843.458228 -20858.236491    654.380873
*  2012 12  4 14 45  0.00000000
PJ01 -18166.375795  26348.157928 -22800.494159    351.266359
PE11  27169.583252   7774.999014  -8809.851228   -127.560372
PE12  13150.524277  15793.988889 -21299.412092    654.406412
*  2012 12  4 14 50  0.00000000
PJ01 -18220.564611  26031.074024 -23067.059365    351.266219
PE11  26892.984306   7750.056912  -9641.529263   -127.535612
PE12  12504.391158  15758.201595 -21711.121830    654.431960
*  2012 12  4 14 55  0.00000000
PJ01 -18286.558167  25713.650925 -23319.953993    351.266133
PE11  26591.090621   7730.761498 -10459.871790   -127.510876
PE12  11845.690465  15736.705110 -22092.796476    654.457475
*  2012 12  4 15  0  0.00000000
PJ01 -18364.328340  25396.406871 -23558.997418    351.266017
PE11  26264.447280   7718.225341 -11263.747133   -127.486125
PE12  11175.655635  15730.042088 -22443.908360    654.483010
*  2012 12  4 15  5  0.00000000
PJ01 -18453.824024  25079.860927 -23784.018216    351.265862
PE11  25913.669744   7713.529503 -12052.043666   -127.461373
PE12  10495.552588  15738.687073 -22763.972101    654.508533
*  2012 12  4 15 10  0.00000000
PJ01 -18554.971126  24764.531892 -23994.854394    351.265763
PE11  25539.441830   7717.719526 -12823.671345   -127.436618
PE12   9806.675569  15763.044740 -23052.545273    654.534056
*  2012 12  4 15 15  0.00000000
PJ01 -18667.672610  24450.937194 -24191.353625    351.265701
PE11  25142.513441   7731.801552 -13577.563213   -127.411864
PE12   9110.342887  15803.448381 -23309.229015    654.559591
*  2012 12  4 15 20  0.00000000
PJ01 -18791.808605  24139.591794 -24373.373461    351.265510
PE11  24723.698086   7756.738564 -14312.676882   -127.387138
PE12   8407.892562  15860.158644 -23533.668582    654.585100
*  2012 12  4 15 25  0.00000000
PJ01 -18927.236562  23831.007080 -24540.781538    351.265384
PE11  24283.870171   7793.446801 -15027.995963   -127.362349
PE12   7700.677926  15933.362537 -23725.553828    654.610692
*  2012 12  4 15 30  0.00000000
PJ01 -19073.791470  23525.689767 -24693.455766    351.265286
PE11  23823.962079   7842.792323 -15722.531480   -127.337587
PE12   6990.063146  16023.172678 -23884.619638    654.636217
*  2012 12  4 15 35  0.00000000
PJ01 -19231.286123  23224.140817 -24831.284507    351.265167
PE11  23344.961067   7905.587759 -16395.323222   -127.312809
PE12   6277.418739  16129.626824 -24010.646287    654.661755
*  2012 12  4 15 40  0.00000000
PJ01 -19399.511450  22926.854342 -24954.166737    351.265054
PE11  22847.905955   7982.589247 -17045.441082   -127.288037
PE12   5564.117039  16252.687654 -24103.459745    654.687300
*  2012 12  4 15 45  0.00000000
PJ01 -19578.236891  22634.316554 -25062.012196    351.265008
PE11  22333.883657   8074.493567 -17671.986329   -127.263284
PE12   4851.527684  16392.242824 -24162.931915    654.712843
*  2012 12  4 15 50  0.00000000
PJ01 -19767.210827  22347.004705 -25154.741520    351.264894
PE11  21804.025535   8181.935484 -18274.092857   -127.238518
PE12   4141.013091  16548.105285 -24188.980805    654.738373
*  2012 12  4 15 55  0.00000000
PJ01 -19966.161068  22065.386053 -25232.286358    351.264730
PE11  21259.503606   8305.485319 -18850.928370   -127.213742
PE12   3433.923976  16720.013866 -24181.570645    654.763916
*  2012 12  4 16  0  0.00000000
PJ01 -20174.795391  21789.916858 -25294.589478    351.264625
PE11  20701.526619   8445.646734 -19401.695536   -127.188970
PE12   2731.594906  16907.634117 -24140.711928    654.789477
*  2012 12  4 16  5  0.00000000
PJ01 -20392.802123  21521.041394 -25341.604842    351.264487
PE11  20131.335987   8602.854762 -19925.633086   -127.164207
PE12   2035.339907  17110.559423 -24066.461401    654.815000
*  2012 12  4 16 10  0.00000000
PJ01 -20619.850773  21259.190991 -25373.297692    351.264332
PE11  19550.201639   8777.474072 -20422.016853   -127.139440
PE12   1346.448159  17328.312352 -23958.921980    654.840541
*  2012 12  4 16 15  0.00000000
PJ01 -20855.592719  21004.783112 -25389.644586    351.264218
PE11  18959.417745   8969.797488 -20890.160784   -127.114676
PE12    666.179754  17560.346277 -23818.242608    654.866077
*  2012 12  4 16 20  0.00000000
PJ01 -21099.661929  20758.220452 -25390.633440    351.264155
PE11  18360.298381   9180.044758 -21329.417875   -127.089912
PE12     -4.238420  17806.047228 -23644.618052    654.891612
*  2012 12  4 16 25  0.00000000
PJ01 -21351.675736  20519.890089 -25376.263549    351.264012
PE11  17754.173118   9408.361576 -21739.181065   -127.065147
PE12   -663.616692  18064.735993 -23438.288625    654.917143
*  2012 12  4 16 30  0.00000000
PJ01 -21611.235643  20290.162657 -25346.545581    351.263846
PE11  17142.382567   9654.818876 -22118.884067   -127.040410
PE12  -1310.806486  18335.670437 -23199.539865    654.942711
*  2012 12  4 16 35  0.00000000
PJ01 -21877.928172  20069.391571 -25301.501566    351.263833
PE11  16526.273884   9919.412379 -22468.002156   -127.015660
PE12  -1944.704054  18618.048064 -22928.702127    654.968248
EOF
